$$SOE
2460154.500000000, A.D. 2023-Jul-29 00:00:00.0000, -4.121270406429654E+08, 4.234443069029206E+07, -9.307598698727375E+07,
2460161.500000000, A.D. 2023-Aug-05 00:00:00.0000, -4.142131935431715E+08, 3.179091633186066E+07, -9.182528966139510E+07,
2460168.500000000, A.D. 2023-Aug-12 00:00:00.0000, -4.160383188527366E+08, 2.121734100398291E+07, -9.051670944318037E+07,
2460175.500000000, A.D. 2023-Aug-19 00:00:00.0000, -4.176028169388422E+08, 1.063044621147560E+07, -8.915140795634095E+07,
2460182.500000000, A.D. 2023-Aug-26 00:00:00.0000, -4.189072603936618E+08, 3.690256070188433E+04, -8.773057171380395E+07,
2460189.500000000, A.D. 2023-Sep-02 00:00:00.0000, -4.199523896691840E+08, -1.055669424289343E+07, -8.625541055436368E+07,
2460196.500000000, A.D. 2023-Sep-09 00:00:00.0000, -4.207391086452062E+08, -2.114382725483005E+07, -8.472715612019910E+07,
2460203.500000000, A.D. 2023-Sep-16 00:00:00.0000, -4.212684799748511E+08, -3.171806207204024E+07, -8.314706039726323E+07,
2460210.500000000, A.D. 2023-Sep-23 00:00:00.0000, -4.215417198031958E+08, -4.227305025218946E+07, -8.151639433483547E+07,
2460217.500000000, A.D. 2023-Sep-30 00:00:00.0000, -4.215601922095530E+08, -5.280253118701626E+07, -7.983644641696551E+07,
2460224.500000000, A.D. 2023-Oct-07 00:00:00.0000, -4.213254057377954E+08, -6.330033297946797E+07, -7.810852101548459E+07,
2460231.500000000, A.D. 2023-Oct-14 00:00:00.0000, -4.208390109866838E+08, -7.376037564508846E+07, -7.633393689242065E+07,
2460238.500000000, A.D. 2023-Oct-21 00:00:00.0000, -4.201027960426009E+08, -8.417667504076457E+07, -7.451402601805487E+07,
2460245.500000000, A.D. 2023-Oct-28 00:00:00.0000, -4.191186811865723E+08, -9.454334526659226E+07, -7.265013238895205E+07,
2460252.500000000, A.D. 2023-Nov-04 00:00:00.0000, -4.178887141322440E+08, -1.048546003192168E+08, -7.074361079402025E+07,
2460259.500000000, A.D. 2023-Nov-11 00:00:00.0000, -4.164150656252265E+08, -1.151047556052404E+08, -6.879582559441718E+07,
2460266.500000000, A.D. 2023-Nov-18 00:00:00.0000, -4.147000251924754E+08, -1.252882293870058E+08, -6.680814954320355E+07,
2460273.500000000, A.D. 2023-Nov-25 00:00:00.0000, -4.127459969760056E+08, -1.353995441457636E+08, -6.478196264965177E+07,
2460280.500000000, A.D. 2023-Dec-02 00:00:00.0000, -4.105554956288607E+08, -1.454333278811451E+08, -6.271865109152556E+07,
2460287.500000000, A.D. 2023-Dec-09 00:00:00.0000, -4.081311422010421E+08, -1.553843154138129E+08, -6.061960618706769E+07,
2460294.500000000, A.D. 2023-Dec-16 00:00:00.0000, -4.054756597330260E+08, -1.652473496866980E+08, -5.848622345184338E+07,
2460301.500000000, A.D. 2023-Dec-23 00:00:00.0000, -4.025918682130821E+08, -1.750173823850560E+08, -5.631990171595588E+07,
2460308.500000000, A.D. 2023-Dec-30 00:00:00.0000, -3.994826802423685E+08, -1.846894728334213E+08, -5.412204209254054E+07,
2460315.500000000, A.D. 2024-Jan-06 00:00:00.0000, -3.961510991836379E+08, -1.942587875376917E+08, -5.189404682752299E+07,
2460322.500000000, A.D. 2024-Jan-13 00:00:00.0000, -3.926002166248019E+08, -2.037206021864567E+08, -4.963731846901856E+07,
2460329.500000000, A.D. 2024-Jan-20 00:00:00.0000, -3.888332079361684E+08, -2.130703030324627E+08, -4.735325921551535E+07,
2460336.500000000, A.D. 2024-Jan-27 00:00:00.0000, -3.848533279491449E+08, -2.223033870073973E+08, -4.504327020191988E+07,
2460343.500000000, A.D. 2024-Feb-03 00:00:00.0000, -3.806639071830885E+08, -2.314154615263431E+08, -4.270875076077293E+07,
2460350.500000000, A.D. 2024-Feb-10 00:00:00.0000, -3.762683483434488E+08, -2.404022442826104E+08, -4.035109770794387E+07,
2460357.500000000, A.D. 2024-Feb-17 00:00:00.0000, -3.716701229553847E+08, -2.492595630342241E+08, -3.797170466526970E+07,
2460364.500000000, A.D. 2024-Feb-24 00:00:00.0000, -3.668727681003191E+08, -2.579833553747209E+08, -3.557196142219347E+07,
2460371.500000000, A.D. 2024-Mar-02 00:00:00.0000, -3.618798832284117E+08, -2.665696685267541E+08, -3.315325334109345E+07,
2460378.500000000, A.D. 2024-Mar-09 00:00:00.0000, -3.566951269090793E+08, -2.750146592266911E+08, -3.071696082311068E+07,
2460385.500000000, A.D. 2024-Mar-16 00:00:00.0000, -3.513222131241651E+08, -2.833145935080926E+08, -2.826445885337850E+07,
2460392.500000000, A.D. 2024-Mar-23 00:00:00.0000, -3.457649072064444E+08, -2.914658452799917E+08, -2.579711652424772E+07,
2460399.500000000, A.D. 2024-Mar-30 00:00:00.0000, -3.400270236629307E+08, -2.994648937317182E+08, -2.331629633192703E+07,
2460406.500000000, A.D. 2024-Apr-06 00:00:00.0000, -3.341124256255444E+08, -3.073083229377777E+08, -2.082335354429094E+07,
2460413.500000000, A.D. 2024-Apr-13 00:00:00.0000, -3.280250223781142E+08, -3.149928228325274E+08, -1.831963589634830E+07,
2460420.500000000, A.D. 2024-Apr-20 00:00:00.0000, -3.217687659118186E+08, -3.225151888824068E+08, -1.580648330609822E+07,
2460427.500000000, A.D. 2024-Apr-27 00:00:00.0000, -3.153476480245178E+08, -3.298723210201795E+08, -1.328522751614253E+07,
2460434.500000000, A.D. 2024-May-04 00:00:00.0000, -3.087656978734847E+08, -3.370612225476350E+08, -1.075719172537835E+07,
2460441.500000000, A.D. 2024-May-11 00:00:00.0000, -3.020269797404785E+08, -3.440789991121935E+08, -8.223690239928633E+06,
2460448.500000000, A.D. 2024-May-18 00:00:00.0000, -2.951355909248464E+08, -3.509228577397938E+08, -5.686028148103222E+06,
2460455.500000000, A.D. 2024-May-25 00:00:00.0000, -2.880956597378955E+08, -3.575901059351072E+08, -3.145501021224022E+06,
2460462.500000000, A.D. 2024-Jun-01 00:00:00.0000, -2.809113435367044E+08, -3.640781509103035E+08, -6.033946494228095E+05,
2460469.500000000, A.D. 2024-Jun-08 00:00:00.0000, -2.735868265491608E+08, -3.703844989690913E+08, 1.939015164220214E+06,
2460476.500000000, A.D. 2024-Jun-15 00:00:00.0000, -2.661263170891078E+08, -3.765067545044990E+08, 4.480462760241970E+06,
2460483.500000000, A.D. 2024-Jun-22 00:00:00.0000, -2.585340451651510E+08, -3.824426174381135E+08, 7.019692919474602E+06,
2460490.500000000, A.D. 2024-Jun-29 00:00:00.0000, -2.508142626024917E+08, -3.881898809240226E+08, 9.555461346711129E+06,
2460497.500000000, A.D. 2024-Jul-06 00:00:00.0000, -2.429712430307190E+08, -3.937464317919316E+08, 1.208653489780532E+07,
2460504.500000000, A.D. 2024-Jul-13 00:00:00.0000, -2.350092797872081E+08, -3.991102509089290E+08, 1.461169160330726E+07,
2460511.500000000, A.D. 2024-Jul-20 00:00:00.0000, -2.269326837204974E+08, -4.042794123134108E+08, 1.712972076577580E+07,
2460518.500000000, A.D. 2024-Jul-27 00:00:00.0000, -2.187457815474996E+08, -4.092520820819412E+08, 1.963942311347046E+07,
2460525.500000000, A.D. 2024-Aug-03 00:00:00.0000, -2.104529144889000E+08, -4.140265173052803E+08, 2.213961095544636E+07,
2460532.500000000, A.D. 2024-Aug-10 00:00:00.0000, -2.020584370140697E+08, -4.186010651797704E+08, 2.462910832301167E+07,
2460539.500000000, A.D. 2024-Aug-17 00:00:00.0000, -1.935667156455956E+08, -4.229741621945953E+08, 2.710675109550606E+07,
2460546.500000000, A.D. 2024-Aug-24 00:00:00.0000, -1.849821277935840E+08, -4.271443334394716E+08, 2.957138710663880E+07,
2460553.500000000, A.D. 2024-Aug-31 00:00:00.0000, -1.763090605024940E+08, -4.311101920961955E+08, 3.202187621644002E+07,
2460560.500000000, A.D. 2024-Sep-07 00:00:00.0000, -1.675519087435859E+08, -4.348704389890777E+08, 3.445709032632652E+07,
2460567.500000000, A.D. 2024-Sep-14 00:00:00.0000, -1.587150731664318E+08, -4.384238611989391E+08, 3.687591341149433E+07,
2460574.500000000, A.D. 2024-Sep-21 00:00:00.0000, -1.498029593365335E+08, -4.417693293272705E+08, 3.927724179084000E+07,
2460581.500000000, A.D. 2024-Sep-28 00:00:00.0000, -1.408199789435000E+08, -4.449057966368330E+08, 4.165998441538770E+07,
2460588.500000000, A.D. 2024-Oct-05 00:00:00.0000, -1.317705493063944E+08, -4.478323000671959E+08, 4.402306283877350E+07,
2460595.500000000, A.D. 2024-Oct-12 00:00:00.0000, -1.226590915335775E+08, -4.505479601466499E+08, 4.636541114667778E+07,
2460602.500000000, A.D. 2024-Oct-19 00:00:00.0000, -1.134900290851622E+08, -4.530519800732396E+08, 4.868597598416848E+07,
2460609.500000000, A.D. 2024-Oct-26 00:00:00.0000, -1.042677867683584E+08, -4.553436447683619E+08, 5.098371661914444E+07,
2460616.500000000, A.D. 2024-Nov-02 00:00:00.0000, -9.499678990688652E+07, -4.574223200528665E+08, 5.325760500694880E+07,
2460623.500000000, A.D. 2024-Nov-09 00:00:00.0000, -8.568146358639270E+07, -4.592874519257361E+08, 5.550662584971622E+07,
2460630.500000000, A.D. 2024-Nov-16 00:00:00.0000, -7.632623194819193E+07, -4.609385659454807E+08, 5.772977664877333E+07,
2460637.500000000, A.D. 2024-Nov-23 00:00:00.0000, -6.693551748250531E+07, -4.623752667644631E+08, 5.992606774240653E+07,
2460644.500000000, A.D. 2024-Nov-30 00:00:00.0000, -5.751374011102697E+07, -4.635972378590387E+08, 6.209452230711247E+07,
2460651.500000000, A.D. 2024-Dec-07 00:00:00.0000, -4.806531563755317E+07, -4.646042410349684E+08, 6.423417631890273E+07,
2460658.500000000, A.D. 2024-Dec-14 00:00:00.0000, -3.859465425352892E+07, -4.653961144838949E+08, 6.634407863841677E+07,
2460665.500000000, A.D. 2024-Dec-21 00:00:00.0000, -2.910616141504698E+07, -4.659727706307334E+08, 6.842329133142874E+07,
2460672.500000000, A.D. 2024-Dec-28 00:00:00.0000, -1.960423911614975E+07, -4.663341967386877E+08, 7.047088980159144E+07,
2460679.500000000, A.D. 2025-Jan-04 00:00:00.0000, -1.009328495866321E+07, -4.664804558965081E+08, 7.248596269207178E+07,
2460686.500000000, A.D. 2025-Jan-11 00:00:00.0000, -5.776908380074579E+05, -4.664116867290720E+08, 7.446761185966931E+07,
2460693.500000000, A.D. 2025-Jan-18 00:00:00.0000, 8.938157839726472E+06, -4.661281027502661E+08, 7.641495243119508E+07,
2460700.500000000, A.D. 2025-Jan-25 00:00:00.0000, 1.844988265463998E+07, -4.656299918325316E+08, 7.832711288162629E+07,
2460707.500000000, A.D. 2025-Feb-01 00:00:00.0000, 2.795311257511800E+07, -4.649177158228256E+08, 8.020323511470300E+07,
2460714.500000000, A.D. 2025-Feb-08 00:00:00.0000, 3.744348432553603E+07, -4.639917102848584E+08, 8.204247454261078E+07,
$$EOE